{"type": "FeatureCollection", "features": [ {"type": "Feature", "properties": {"norad_id": 31768, "name": "FENGYUN 1C DEB", "group": "fengyun-1c-debris", "lat": -76.33700938899224, "lon": -170.5862130523753, "alt_km": 656.1141974299153, "timestamp": "2025-12-04T10:51:50.389422+00:00", "meta": {"OBJECT_NAME": "FENGYUN 1C DEB", "OBJECT_ID": "1999-025CFT", "EPOCH": "2025-12-03T10:57:47.606400", "MEAN_MOTION": 14.75610612, "ECCENTRICITY": 0.00263536, "INCLINATION": 99.0442, "RA_OF_ASC_NODE": 49.239, "ARG_OF_PERICENTER": 11.0794, "MEAN_ANOMALY": 1.6919, "EPHEMERIS_TYPE": 0, "CLASSIFICATION_TYPE": "U", "NORAD_CAT_ID": 31768, "ELEMENT_SET_NO": 999, "REV_AT_EPOCH": 96736, "BSTAR": 0.0034312431, "MEAN_MOTION_DOT": 0.00023557, "MEAN_MOTION_DDOT": 0}, "tle": {"line1": "1 31768U 99025CFT 25337.45680100  .00023557  00000+0  34312-2 0  9990", "line2": "2 31768  99.0442  49.2390 0026353  11.0794   1.6919 14.75610612967363"}}, "geometry": {"type": "Point", "coordinates": [-170.5862130523753, -76.33700938899224]}}, {"type": "Feature", "properties": {"norad_id": 31772, "name": "FENGYUN 1C DEB", "group": "fengyun-1c-debris", "lat": 57.20804688452164, "lon": 89.73423866705343, "alt_km": 753.604476850981, "timestamp": "2025-12-04T10:51:50.389432+00:00", "meta": {"OBJECT_NAME": "FENGYUN 1C DEB", "OBJECT_ID": "1999-025CFX", "EPOCH": "2025-12-02T05:33:26.479008", "MEAN_MOTION": 14.11635308, "ECCENTRICITY": 0.0135819, "INCLINATION": 98.4716, "RA_OF_ASC_NODE": 254.2606, "ARG_OF_PERICENTER": 143.9036, "MEAN_ANOMALY": 217.1401, "EPHEMERIS_TYPE": 0, "CLASSIFICATION_TYPE": "U", "NORAD_CAT_ID": 31772, "ELEMENT_SET_NO": 999, "REV_AT_EPOCH": 70735, "BSTAR": 0.0011634, "MEAN_MOTION_DOT": 2.268e-05, "MEAN_MOTION_DDOT": 0}, "tle": {"line1": "1 31772U 99025CFX 25336.23155647  .00002268  00000+0  11634-2 0  9991", "line2": "2 31772  98.4716 254.2606 0135819 143.9036 217.1401 14.11635308707355"}}, "geometry": {"type": "Point", "coordinates": [89.73423866705343, 57.20804688452164]}}, {"type": "Feature", "properties": {"norad_id": 31773, "name": "FENGYUN 1C DEB", "group": "fengyun-1c-debris", "lat": 0.47716460006626693, "lon": 148.61409842814638, "alt_km": 631.7407602320181, "timestamp": "2025-12-04T10:51:50.389442+00:00", "meta": {"OBJECT_NAME": "FENGYUN 1C DEB", "OBJECT_ID": "1999-025CFY", "EPOCH": "2025-12-01T05:23:44.833344", "MEAN_MOTION": 14.72359777, "ECCENTRICITY": 0.0038605, "INCLINATION": 98.9488, "RA_OF_ASC_NODE": 324.9883, "ARG_OF_PERICENTER": 215.5051, "MEAN_ANOMALY": 144.3583, "EPHEMERIS_TYPE": 0, "CLASSIFICATION_TYPE": "U", "NORAD_CAT_ID": 31773, "ELEMENT_SET_NO": 999, "REV_AT_EPOCH": 65005, "BSTAR": 0.0025423, "MEAN_MOTION_DOT": 0.00016254, "MEAN_MOTION_DDOT": 0}, "tle": {"line1": "1 31773U 99025CFY 25335.22482446  .00016254  00000+0  25423-2 0  9991", "line2": "2 31773  98.9488 324.9883 0038605 215.5051 144.3583 14.72359777650053"}}, "geometry": {"type": "Point", "coordinates": [148.61409842814638, 0.47716460006626693]}}, {"type": "Feature", "properties": {"norad_id": 31776, "name": "FENGYUN 1C DEB", "group": "fengyun-1c-debris", "lat": 66.7659696202965, "lon": 16.14759905890584, "alt_km": 810.0187415190039, "timestamp": "2025-12-04T10:51:50.389452+00:00", "meta": {"OBJECT_NAME": "FENGYUN 1C DEB", "OBJECT_ID": "1999-025CGB", "EPOCH": "2025-12-01T15:32:26.394144", "MEAN_MOTION": 14.18453446, "ECCENTRICITY": 0.00544701, "INCLINATION": 99.0762, "RA_OF_ASC_NODE": 35.1395, "ARG_OF_PERICENTER": 7.0694, "MEAN_ANOMALY": 144.5464, "EPHEMERIS_TYPE": 0, "CLASSIFICATION_TYPE": "U", "NORAD_CAT_ID": 31776, "ELEMENT_SET_NO": 999, "REV_AT_EPOCH": 94723, "BSTAR": 0.0013902785, "MEAN_MOTION_DOT": 2.868e-05, "MEAN_MOTION_DDOT": 0}, "tle": {"line1": "1 31776U 99025CGB 25335.64752771  .00002868  00000+0  13903-2 0  9997", "line2": "2 31776  99.0762  35.1395 0054470   7.0694 144.5464 14.18453446947234"}}, "geometry": {"type": "Point", "coordinates": [16.14759905890584, 66.7659696202965]}}, {"type": "Feature", "properties": {"norad_id": 31779, "name": "FENGYUN 1C DEB", "group": "fengyun-1c-debris", "lat": 41.06500448963913, "lon": -110.52007189904096, "alt_km": 896.8244784776634, "timestamp": "2025-12-04T10:51:50.389463+00:00", "meta": {"OBJECT_NAME": "FENGYUN 1C DEB", "OBJECT_ID": "1999-025CGE", "EPOCH": "2025-12-04T00:40:04.596672", "MEAN_MOTION": 14.41565447, "ECCENTRICITY": 0.0212946, "INCLINATION": 99.2972, "RA_OF_ASC_NODE": 257.2232, "ARG_OF_PERICENTER": 208.5259, "MEAN_ANOMALY": 150.4141, "EPHEMERIS_TYPE": 0, "CLASSIFICATION_TYPE": "U", "NORAD_CAT_ID": 31779, "ELEMENT_SET_NO": 999, "REV_AT_EPOCH": 96884, "BSTAR": 0.00051193, "MEAN_MOTION_DOT": 2.12e-05, "MEAN_MOTION_DDOT": 0}, "tle": {"line1": "1 31779U 99025CGE 25338.02783098  .00002120  00000+0  51193-3 0  9996", "line2": "2 31779  99.2972 257.2232 0212946 208.5259 150.4141 14.41565447968847"}}, "geometry": {"type": "Point", "coordinates": [-110.52007189904096, 41.06500448963913]}}, {"type": "Feature", "properties": {"norad_id": 31780, "name": "FENGYUN 1C DEB", "group": "fengyun-1c-debris", "lat": -69.17231640950467, "lon": -75.52086021063694, "alt_km": 775.4828363671722, "timestamp": "2025-12-04T10:51:50.389473+00:00", "meta": {"OBJECT_NAME": "FENGYUN 1C DEB", "OBJECT_ID": "1999-025CGF", "EPOCH": "2025-12-02T16:52:42.096000", "MEAN_MOTION": 14.69471581, "ECCENTRICITY": 0.01511233, "INCLINATION": 99.2852, "RA_OF_ASC_NODE": 127.9625, "ARG_OF_PERICENTER": 83.8825, "MEAN_ANOMALY": 277.9572, "EPHEMERIS_TYPE": 0, "CLASSIFICATION_TYPE": "U", "NORAD_CAT_ID": 31780, "ELEMENT_SET_NO": 999, "REV_AT_EPOCH": 98350, "BSTAR": 0.00042388238, "MEAN_MOTION_DOT": 2.922e-05, "MEAN_MOTION_DDOT": 0}, "tle": {"line1": "1 31780U 99025CGF 25336.70326500  .00002922  00000+0  42388-3 0  9998", "line2": "2 31780  99.2852 127.9625 0151123  83.8825 277.9572 14.69471581983505"}}, "geometry": {"type": "Point", "coordinates": [-75.52086021063694, -69.17231640950467]}}, {"type": "Feature", "properties": {"norad_id": 31781, "name": "FENGYUN 1C DEB", "group": "fengyun-1c-debris", "lat": -79.62883403216011, "lon": -97.31764709035838, "alt_km": 730.1082210396826, "timestamp": "2025-12-04T10:51:50.389483+00:00", "meta": {"OBJECT_NAME": "FENGYUN 1C DEB", "OBJECT_ID": "1999-025CGG", "EPOCH": "2025-12-02T06:36:07.026912", "MEAN_MOTION": 14.12719425, "ECCENTRICITY": 0.0203779, "INCLINATION": 99.4973, "RA_OF_ASC_NODE": 146.5341, "ARG_OF_PERICENTER": 302.7717, "MEAN_ANOMALY": 55.3963, "EPHEMERIS_TYPE": 0, "CLASSIFICATION_TYPE": "U", "NORAD_CAT_ID": 31781, "ELEMENT_SET_NO": 999, "REV_AT_EPOCH": 68200, "BSTAR": 0.0037688, "MEAN_MOTION_DOT": 8.472e-05, "MEAN_MOTION_DDOT": 0}, "tle": {"line1": "1 31781U 99025CGG 25336.27508133  .00008472  00000+0  37688-2 0  9997", "line2": "2 31781  99.4973 146.5341 0203779 302.7717  55.3963 14.12719425682005"}}, "geometry": {"type": "Point", "coordinates": [-97.31764709035838, -79.62883403216011]}}, {"type": "Feature", "properties": {"norad_id": 31782, "name": "FENGYUN 1C DEB", "group": "fengyun-1c-debris", "lat": 32.48574799230561, "lon": 133.63600150489555, "alt_km": 713.0968689835136, "timestamp": "2025-12-04T10:51:50.389498+00:00", "meta": {"OBJECT_NAME": "FENGYUN 1C DEB", "OBJECT_ID": "1999-025CGH", "EPOCH": "2025-12-01T17:34:28.802784", "MEAN_MOTION": 14.36194439, "ECCENTRICITY": 0.00799495, "INCLINATION": 98.904, "RA_OF_ASC_NODE": 136.5548, "ARG_OF_PERICENTER": 29.379, "MEAN_ANOMALY": 346.2084, "EPHEMERIS_TYPE": 0, "CLASSIFICATION_TYPE": "U", "NORAD_CAT_ID": 31782, "ELEMENT_SET_NO": 999, "REV_AT_EPOCH": 96533, "BSTAR": 0.00037631205, "MEAN_MOTION_DOT": 1.091e-05, "MEAN_MOTION_DDOT": 0}, "tle": {"line1": "1 31782U 99025CGH 25335.73227781  .00001091  00000+0  37631-3 0  9994", "line2": "2 31782  98.9040 136.5548 0079949  29.3790 346.2084 14.36194439965330"}}, "geometry": {"type": "Point", "coordinates": [133.63600150489555, 32.48574799230561]}}, {"type": "Feature", "properties": {"norad_id": 31783, "name": "FENGYUN 1C DEB", "group": "fengyun-1c-debris", "lat": 26.95613204312407, "lon": -16.930622057319933, "alt_km": 809.1586687278268, "timestamp": "2025-12-04T10:51:50.389508+00:00", "meta": {"OBJECT_NAME": "FENGYUN 1C DEB", "OBJECT_ID": "1999-025CGJ", "EPOCH": "2025-12-01T11:52:09.590016", "MEAN_MOTION": 14.0879404, "ECCENTRICITY": 0.01046301, "INCLINATION": 98.6052, "RA_OF_ASC_NODE": 344.6618, "ARG_OF_PERICENTER": 81.6085, "MEAN_ANOMALY": 72.4582, "EPHEMERIS_TYPE": 0, "CLASSIFICATION_TYPE": "U", "NORAD_CAT_ID": 31783, "ELEMENT_SET_NO": 999, "REV_AT_EPOCH": 89062, "BSTAR": 0.00069283831, "MEAN_MOTION_DOT": 1.217e-05, "MEAN_MOTION_DDOT": 0}, "tle": {"line1": "1 31783U 99025CGJ 25335.49455544  .00001217  00000+0  69284-3 0  9997", "line2": "2 31783  98.6052 344.6618 0104630  81.6085  72.4582 14.08794040890628"}}, "geometry": {"type": "Point", "coordinates": [-16.930622057319933, 26.95613204312407]}}, {"type": "Feature", "properties": {"norad_id": 31788, "name": "FENGYUN 1C DEB", "group": "fengyun-1c-debris", "lat": 32.14276367158973, "lon": -52.59586583457165, "alt_km": 822.7704602650201, "timestamp": "2025-12-04T10:51:50.389519+00:00", "meta": {"OBJECT_NAME": "FENGYUN 1C DEB", "OBJECT_ID": "1999-025CGP", "EPOCH": "2025-12-02T15:26:16.495008", "MEAN_MOTION": 13.44999859, "ECCENTRICITY": 0.04642981, "INCLINATION": 102.556, "RA_OF_ASC_NODE": 117.0923, "ARG_OF_PERICENTER": 109.1347, "MEAN_ANOMALY": 277.0195, "EPHEMERIS_TYPE": 0, "CLASSIFICATION_TYPE": "U", "NORAD_CAT_ID": 31788, "ELEMENT_SET_NO": 999, "REV_AT_EPOCH": 90469, "BSTAR": 0.0032555531, "MEAN_MOTION_DOT": 3.616e-05, "MEAN_MOTION_DDOT": 0}, "tle": {"line1": "1 31788U 99025CGP 25336.64324647  .00003616  00000+0  32556-2 0  9995", "line2": "2 31788 102.5560 117.0923 0464298 109.1347 277.0195 13.44999859904699"}}, "geometry": {"type": "Point", "coordinates": [-52.59586583457165, 32.14276367158973]}}]}